ICEYE-X39               
1 60546U 24149CG  26196.76179355  .00002258  00000+0  18588-3 0  9997
2 60546  97.6790 273.4005 0006929  45.0882 315.0903 15.00075595104402
UMBRA-10                
1 60547U 24149CH  26196.79832415  .00009740  00000+0  47045-3 0  9997
2 60547  97.6981 284.5401 0001674 166.3022 193.8257 15.18861857105074
ICEYE-X33               
1 60548U 24149CJ  26196.76985598  .00002916  00000+0  23385-3 0  9995
2 60548  97.7366 275.7676 0001903  74.5375 285.6059 15.00888774104498
ICEYE-X40               
1 60549U 24149CK  26196.15704842  .00001435  00000+0  12621-3 0  9996
2 60549  97.6795 272.2031 0003997   6.4770 353.6503 14.98070105104261
SATELIOT_1              
1 60550U 24149CL  26196.74703766  .00001161  00000+0  10279-3 0  9990
2 60550  97.6733 272.1698 0005583 350.9800   9.1321 14.98164284104349
BRO-14                  
1 60551U 24149CM  26196.14995946  .00000914  00000+0  86103-4 0  9993
2 60551  97.6864 271.4249 0006734  18.0591 342.0868 14.96235870104171
SATELIOT_3              
1 60552U 24149CN  26196.78974195  .00000380  00000+0  36954-4 0  9993
2 60552  97.6817 273.0309 0004992   2.3270 357.7975 14.98164504104369
BRO-15                  
1 60553U 24149CP  26196.93516243  .00000279  00000+0  29830-4 0  9999
2 60553  97.6790 271.7710 0007700   2.0879 358.0373 14.96221933104301
UM5-RIBAT               
1 60554U 24149CQ  26196.93468940  .00001155  00000+0  94626-4 0  9999
2 60554  97.6605 274.3451 0000636 345.1963  14.9242 15.01219943104504
UM5-EOSAT               
1 60555U 24149CR  26196.15882254  .00001915  00000+0  15172-3 0  9994
2 60555  97.6776 274.5816 0009116  35.6763 324.5069 15.01728593104415
LASARSAT                
1 62391U 24247Q   26196.77121495  .00023596  00000+0  44538-3 0  9991
2 62391  44.9738 101.3785 0007483 169.7911 190.3132 15.48070783 87747
CROCUBE                 
1 62394U 24247T   26196.08738532  .00025934  00000+0  45370-3 0  9997
2 62394  44.9722 102.0802 0007544 171.5148 188.5872 15.50189566 87677
TEVEL2-4                
1 63213U 25052D   26196.14627864  .00010715  00000+0  31215-3 0  9999
2 63213  97.3870  92.5984 0003540  51.9364 308.2199 15.35565165 74407
TEVEL2-5                
1 63214U 25052E   26196.17004561  .00010329  00000+0  30278-3 0  9995
2 63214  97.3866  92.5619 0003594  53.2255 306.9318 15.35379345 74402
TEVEL2-6                
1 63215U 25052F   26196.50888836  .00011734  00000+0  34391-3 0  9999
2 63215  97.3871  92.8865 0003621  54.7007 305.4575 15.35351129 74451
TEVEL2-1                
1 63217U 25052H   26195.63531658  .00009885  00000+0  29557-3 0  9993
2 63217  97.3847  91.6018 0004319  61.6960 298.4718 15.34761887 74302
TEVEL2-3                
1 63218U 25052J   26196.21566252  .00010309  00000+0  30743-3 0  9999
2 63218  97.3848  92.2082 0003999  62.2511 297.9137 15.34836829 74391
TEVEL2-2                
1 63219U 25052K   26196.15703338  .00010122  00000+0  30238-3 0  9993
2 63219  97.3840  92.1268 0004324  60.5637 299.6037 15.34784029 74383
TEVEL2-9                
1 63237U 25052AD  26196.95467049  .00009229  00000+0  29400-3 0  9992
2 63237  97.3903  92.2363 0007615  55.0737 305.1220 15.32746436 74437
TEVEL2-7                
1 63238U 25052AE  26196.15243170  .00009043  00000+0  29113-3 0  9997
2 63238  97.3906  91.3390 0007756  56.8395 303.3590 15.32415280 74302
TEVEL2-8                
1 63239U 25052AF  26196.94454068  .00009179  00000+0  29548-3 0  9997
2 63239  97.3903  92.1059 0007741  55.6204 304.5769 15.32415227 74426
FORESAIL-1 PRIME        
1 66778U 25276DS  26196.78712620  .00002309  00000+0  11377-3 0  9998
2 66778  97.4192 269.5370 0002852  43.1947 316.9511 15.18941111 34741
